{"type": "FeatureCollection", "features": [ {"type": "Feature", "properties": {"norad_id": 66557, "name": "STARLINK-35699", "group": "last-30-days", "lat": 37.60483669292258, "lon": -165.31293908032774, "alt_km": 409.70246841819517, "timestamp": "2025-12-09T16:56:35.359252+00:00", "meta": {"OBJECT_NAME": "STARLINK-35699", "OBJECT_ID": "2025-268A", "EPOCH": "2025-12-09T12:00:02.000160", "MEAN_MOTION": 15.50517321, "ECCENTRICITY": 9.56e-05, "INCLINATION": 43.0005, "RA_OF_ASC_NODE": 140.1453, "ARG_OF_PERICENTER": 269.2783, "MEAN_ANOMALY": 83.343, "EPHEMERIS_TYPE": 0, "CLASSIFICATION_TYPE": "U", "NORAD_CAT_ID": 66557, "ELEMENT_SET_NO": 999, "REV_AT_EPOCH": 414, "BSTAR": 0.00134, "MEAN_MOTION_DOT": 0.0007889, "MEAN_MOTION_DDOT": 0}, "tle": {"line1": "1 66557U 25268A   25343.50002315  .00078890  00000+0  13400-2 0  9996", "line2": "2 66557  43.0005 140.1453 0000956 269.2783  83.3430 15.50517321  4148"}}, "geometry": {"type": "Point", "coordinates": [-165.31293908032774, 37.60483669292258]}}, {"type": "Feature", "properties": {"norad_id": 66558, "name": "STARLINK-35695", "group": "last-30-days", "lat": 38.31589521697237, "lon": -163.07148920920045, "alt_km": 409.67450744580765, "timestamp": "2025-12-09T16:56:35.359264+00:00", "meta": {"OBJECT_NAME": "STARLINK-35695", "OBJECT_ID": "2025-268B", "EPOCH": "2025-12-09T12:00:02.000160", "MEAN_MOTION": 15.50509153, "ECCENTRICITY": 0.0001065, "INCLINATION": 43.0005, "RA_OF_ASC_NODE": 140.1406, "ARG_OF_PERICENTER": 272.3754, "MEAN_ANOMALY": 82.157, "EPHEMERIS_TYPE": 0, "CLASSIFICATION_TYPE": "U", "NORAD_CAT_ID": 66558, "ELEMENT_SET_NO": 999, "REV_AT_EPOCH": 414, "BSTAR": 0.0013492, "MEAN_MOTION_DOT": 0.00079416, "MEAN_MOTION_DDOT": 0}, "tle": {"line1": "1 66558U 25268B   25343.50002315  .00079416  00000+0  13492-2 0  9993", "line2": "2 66558  43.0005 140.1406 0001065 272.3754  82.1570 15.50509153  4148"}}, "geometry": {"type": "Point", "coordinates": [-163.07148920920045, 38.31589521697237]}}, {"type": "Feature", "properties": {"norad_id": 66559, "name": "STARLINK-35419", "group": "last-30-days", "lat": 39.0207964818729, "lon": -160.65212552271367, "alt_km": 410.17525897628, "timestamp": "2025-12-09T16:56:35.359275+00:00", "meta": {"OBJECT_NAME": "STARLINK-35419", "OBJECT_ID": "2025-268C", "EPOCH": "2025-12-09T12:00:02.000160", "MEAN_MOTION": 15.50630878, "ECCENTRICITY": 0.0002093, "INCLINATION": 43.0004, "RA_OF_ASC_NODE": 140.1358, "ARG_OF_PERICENTER": 263.6275, "MEAN_ANOMALY": 92.8616, "EPHEMERIS_TYPE": 0, "CLASSIFICATION_TYPE": "U", "NORAD_CAT_ID": 66559, "ELEMENT_SET_NO": 999, "REV_AT_EPOCH": 414, "BSTAR": -0.0021812, "MEAN_MOTION_DOT": -0.00126502, "MEAN_MOTION_DDOT": 0}, "tle": {"line1": "1 66559U 25268C   25343.50002315 -.00126502  00000+0 -21812-2 0  9990", "line2": "2 66559  43.0004 140.1358 0002093 263.6275  92.8616 15.50630878  4145"}}, "geometry": {"type": "Point", "coordinates": [-160.65212552271367, 39.0207964818729]}}, {"type": "Feature", "properties": {"norad_id": 66560, "name": "STARLINK-35411", "group": "last-30-days", "lat": 39.64457866570022, "lon": -158.3035867330147, "alt_km": 410.07884230651325, "timestamp": "2025-12-09T16:56:35.359285+00:00", "meta": {"OBJECT_NAME": "STARLINK-35411", "OBJECT_ID": "2025-268D", "EPOCH": "2025-12-09T12:00:02.000160", "MEAN_MOTION": 15.50631037, "ECCENTRICITY": 0.0002082, "INCLINATION": 43.0002, "RA_OF_ASC_NODE": 140.1314, "ARG_OF_PERICENTER": 264.6032, "MEAN_ANOMALY": 93.8077, "EPHEMERIS_TYPE": 0, "CLASSIFICATION_TYPE": "U", "NORAD_CAT_ID": 66560, "ELEMENT_SET_NO": 999, "REV_AT_EPOCH": 414, "BSTAR": -0.0022078, "MEAN_MOTION_DOT": -0.00128015, "MEAN_MOTION_DDOT": 0}, "tle": {"line1": "1 66560U 25268D   25343.50002315 -.00128015  00000+0 -22078-2 0  9998", "line2": "2 66560  43.0002 140.1314 0002082 264.6032  93.8077 15.50631037  4147"}}, "geometry": {"type": "Point", "coordinates": [-158.3035867330147, 39.64457866570022]}}, {"type": "Feature", "properties": {"norad_id": 66561, "name": "STARLINK-35305", "group": "last-30-days", "lat": 40.74165210047416, "lon": -153.50664183216452, "alt_km": 409.92297580485047, "timestamp": "2025-12-09T16:56:35.359295+00:00", "meta": {"OBJECT_NAME": "STARLINK-35305", "OBJECT_ID": "2025-268E", "EPOCH": "2025-12-09T12:00:02.000160", "MEAN_MOTION": 15.50592194, "ECCENTRICITY": 0.0001991, "INCLINATION": 43.0004, "RA_OF_ASC_NODE": 140.122, "ARG_OF_PERICENTER": 263.5766, "MEAN_ANOMALY": 98.6829, "EPHEMERIS_TYPE": 0, "CLASSIFICATION_TYPE": "U", "NORAD_CAT_ID": 66561, "ELEMENT_SET_NO": 999, "REV_AT_EPOCH": 409, "BSTAR": -0.0012509, "MEAN_MOTION_DOT": -0.0007308, "MEAN_MOTION_DDOT": 0}, "tle": {"line1": "1 66561U 25268E   25343.50002315 -.00073080  00000+0 -12509-2 0  9998", "line2": "2 66561  43.0004 140.1220 0001991 263.5766  98.6829 15.50592194  4098"}}, "geometry": {"type": "Point", "coordinates": [-153.50664183216452, 40.74165210047416]}}, {"type": "Feature", "properties": {"norad_id": 66562, "name": "STARLINK-35579", "group": "last-30-days", "lat": 40.21879792995429, "lon": -155.92247805886592, "alt_km": 409.97691930514156, "timestamp": "2025-12-09T16:56:35.359307+00:00", "meta": {"OBJECT_NAME": "STARLINK-35579", "OBJECT_ID": "2025-268F", "EPOCH": "2025-12-09T12:00:02.000160", "MEAN_MOTION": 15.50631594, "ECCENTRICITY": 0.0002037, "INCLINATION": 43.0004, "RA_OF_ASC_NODE": 140.1256, "ARG_OF_PERICENTER": 263.7846, "MEAN_ANOMALY": 96.5429, "EPHEMERIS_TYPE": 0, "CLASSIFICATION_TYPE": "U", "NORAD_CAT_ID": 66562, "ELEMENT_SET_NO": 999, "REV_AT_EPOCH": 414, "BSTAR": -0.0022221, "MEAN_MOTION_DOT": -0.00128832, "MEAN_MOTION_DDOT": 0}, "tle": {"line1": "1 66562U 25268F   25343.50002315 -.00128832  00000+0 -22221-2 0  9997", "line2": "2 66562  43.0004 140.1256 0002037 263.7846  96.5429 15.50631594  4148"}}, "geometry": {"type": "Point", "coordinates": [-155.92247805886592, 40.21879792995429]}}, {"type": "Feature", "properties": {"norad_id": 66563, "name": "STARLINK-35437", "group": "last-30-days", "lat": 41.2163588520585, "lon": -151.03931364896223, "alt_km": 409.8193486979699, "timestamp": "2025-12-09T16:56:35.359317+00:00", "meta": {"OBJECT_NAME": "STARLINK-35437", "OBJECT_ID": "2025-268G", "EPOCH": "2025-12-09T12:00:02.000160", "MEAN_MOTION": 15.50635241, "ECCENTRICITY": 0.0002013, "INCLINATION": 43.0004, "RA_OF_ASC_NODE": 140.1161, "ARG_OF_PERICENTER": 264.4002, "MEAN_ANOMALY": 99.7612, "EPHEMERIS_TYPE": 0, "CLASSIFICATION_TYPE": "U", "NORAD_CAT_ID": 66563, "ELEMENT_SET_NO": 999, "REV_AT_EPOCH": 414, "BSTAR": -0.0023213, "MEAN_MOTION_DOT": -0.00134488, "MEAN_MOTION_DDOT": 0}, "tle": {"line1": "1 66563U 25268G   25343.50002315 -.00134488  00000+0 -23213-2 0  9994", "line2": "2 66563  43.0004 140.1161 0002013 264.4002  99.7612 15.50635241  4142"}}, "geometry": {"type": "Point", "coordinates": [-151.03931364896223, 41.2163588520585]}}, {"type": "Feature", "properties": {"norad_id": 66564, "name": "STARLINK-35358", "group": "last-30-days", "lat": 41.63393609533797, "lon": -148.55633842177144, "alt_km": 409.76438102627526, "timestamp": "2025-12-09T16:56:35.359327+00:00", "meta": {"OBJECT_NAME": "STARLINK-35358", "OBJECT_ID": "2025-268H", "EPOCH": "2025-12-09T12:00:02.000160", "MEAN_MOTION": 15.50592835, "ECCENTRICITY": 0.0001933, "INCLINATION": 43.0002, "RA_OF_ASC_NODE": 140.1126, "ARG_OF_PERICENTER": 262.9461, "MEAN_ANOMALY": 103.1469, "EPHEMERIS_TYPE": 0, "CLASSIFICATION_TYPE": "U", "NORAD_CAT_ID": 66564, "ELEMENT_SET_NO": 999, "REV_AT_EPOCH": 409, "BSTAR": -0.0012878, "MEAN_MOTION_DOT": -0.00075207, "MEAN_MOTION_DDOT": 0}, "tle": {"line1": "1 66564U 25268H   25343.50002315 -.00075207  00000+0 -12878-2 0  9993", "line2": "2 66564  43.0002 140.1126 0001933 262.9461 103.1469 15.50592835  4099"}}, "geometry": {"type": "Point", "coordinates": [-148.55633842177144, 41.63393609533797]}}, {"type": "Feature", "properties": {"norad_id": 66565, "name": "STARLINK-35893", "group": "last-30-days", "lat": 41.99992119587842, "lon": -146.02878133746353, "alt_km": 409.75662979759363, "timestamp": "2025-12-09T16:56:35.359337+00:00", "meta": {"OBJECT_NAME": "STARLINK-35893", "OBJECT_ID": "2025-268J", "EPOCH": "2025-12-09T12:00:02.000160", "MEAN_MOTION": 15.50627134, "ECCENTRICITY": 0.0002062, "INCLINATION": 43.0005, "RA_OF_ASC_NODE": 140.1072, "ARG_OF_PERICENTER": 264.1386, "MEAN_ANOMALY": 103.8568, "EPHEMERIS_TYPE": 0, "CLASSIFICATION_TYPE": "U", "NORAD_CAT_ID": 66565, "ELEMENT_SET_NO": 999, "REV_AT_EPOCH": 414, "BSTAR": -0.0021283, "MEAN_MOTION_DOT": -0.00123473, "MEAN_MOTION_DDOT": 0}, "tle": {"line1": "1 66565U 25268J   25343.50002315 -.00123473  00000+0 -21283-2 0  9993", "line2": "2 66565  43.0005 140.1072 0002062 264.1386 103.8568 15.50627134  4141"}}, "geometry": {"type": "Point", "coordinates": [-146.02878133746353, 41.99992119587842]}}, {"type": "Feature", "properties": {"norad_id": 66566, "name": "STARLINK-35871", "group": "last-30-days", "lat": 42.30795119502538, "lon": -143.48439832973418, "alt_km": 409.6810380973384, "timestamp": "2025-12-09T16:56:35.359349+00:00", "meta": {"OBJECT_NAME": "STARLINK-35871", "OBJECT_ID": "2025-268K", "EPOCH": "2025-12-09T12:00:02.000160", "MEAN_MOTION": 15.50584908, "ECCENTRICITY": 0.0001936, "INCLINATION": 43.0004, "RA_OF_ASC_NODE": 140.1031, "ARG_OF_PERICENTER": 259.9132, "MEAN_ANOMALY": 110.0181, "EPHEMERIS_TYPE": 0, "CLASSIFICATION_TYPE": "U", "NORAD_CAT_ID": 66566, "ELEMENT_SET_NO": 999, "REV_AT_EPOCH": 414, "BSTAR": -0.0010643, "MEAN_MOTION_DOT": -0.00062297, "MEAN_MOTION_DDOT": 0}, "tle": {"line1": "1 66566U 25268K   25343.50002315 -.00062297  00000+0 -10643-2 0  9998", "line2": "2 66566  43.0004 140.1031 0001936 259.9132 110.0181 15.50584908  4148"}}, "geometry": {"type": "Point", "coordinates": [-143.48439832973418, 42.30795119502538]}}]}